[{"OBJECT_NAME":"STARLINK-32295","OBJECT_ID":"2024-224J","EPOCH":"2026-03-09T06:35:22.757280","MEAN_MOTION":15.27598266,"ECCENTRICITY":9.106e-5,"INCLINATION":42.9978,"RA_OF_ASC_NODE":160.6962,"ARG_OF_PERICENTER":277.256,"MEAN_ANOMALY":82.8188,"EPHEMERIS_TYPE":0,"CLASSIFICATION_TYPE":"U","NORAD_CAT_ID":62147,"ELEMENT_SET_NO":999,"REV_AT_EPOCH":7230,"BSTAR":0.00097919655,"MEAN_MOTION_DOT":0.00026796,"MEAN_MOTION_DDOT":0},{"OBJECT_NAME":"FLOCK 4G-8","OBJECT_ID":"2025-009E","EPOCH":"2026-03-09T17:22:17.546016","MEAN_MOTION":15.27623414,"ECCENTRICITY":0.00030503,"INCLINATION":97.4045,"RA_OF_ASC_NODE":151.2834,"ARG_OF_PERICENTER":315.2538,"MEAN_ANOMALY":44.8455,"EPHEMERIS_TYPE":0,"CLASSIFICATION_TYPE":"U","NORAD_CAT_ID":62613,"ELEMENT_SET_NO":999,"REV_AT_EPOCH":6372,"BSTAR":0.0005043806,"MEAN_MOTION_DOT":0.00013559,"MEAN_MOTION_DDOT":0}]
